{"fetched_at":"2026-07-06T08:46:38.495Z","source":"https://celestrak.org/NORAD/elements/gp.php?GROUP=oneweb&FORMAT=JSON","constellation":"oneweb","records":[{"OBJECT_NAME":"ONEWEB-0457","OBJECT_ID":"2022-012AB","EPOCH":"2026-07-05T13:40:30.125568","CLASSIFICATION_TYPE":"U","MEAN_MOTION":13.10373131,"ECCENTRICITY":0.00021819,"INCLINATION":87.8817,"RA_OF_ASC_NODE":32.6086,"ARG_OF_PERICENTER":82.1936,"MEAN_ANOMALY":277.9439,"EPHEMERIS_TYPE":0,"NORAD_CAT_ID":51647,"ELEMENT_SET_NO":999,"REV_AT_EPOCH":21175,"BSTAR":0.0014501374,"MEAN_MOTION_DOT":0.00000519,"MEAN_MOTION_DDOT":0},{"OBJECT_NAME":"ONEWEB-0458","OBJECT_ID":"2022-012AC","EPOCH":"2026-07-05T03:11:27.427776","CLASSIFICATION_TYPE":"U","MEAN_MOTION":13.10371076,"ECCENTRICITY":0.0001661,"INCLINATION":87.8818,"RA_OF_ASC_NODE":32.6838,"ARG_OF_PERICENTER":81.3628,"MEAN_ANOMALY":278.7687,"EPHEMERIS_TYPE":0,"NORAD_CAT_ID":51648,"ELEMENT_SET_NO":999,"REV_AT_EPOCH":21165,"BSTAR":-0.0014909,"MEAN_MOTION_DOT":-0.00000508,"MEAN_MOTION_DDOT":0},{"OBJECT_NAME":"ONEWEB-0461","OBJECT_ID":"2022-012AD","EPOCH":"2026-07-05T10:53:25.965600","CLASSIFICATION_TYPE":"U","MEAN_MOTION":13.17649143,"ECCENTRICITY":0.0001991,"INCLINATION":87.9145,"RA_OF_ASC_NODE":2.2242,"ARG_OF_PERICENTER":89.6452,"MEAN_ANOMALY":270.4908,"EPHEMERIS_TYPE":0,"NORAD_CAT_ID":51649,"ELEMENT_SET_NO":999,"REV_AT_EPOCH":21629,"BSTAR":-0.000036279,"MEAN_MOTION_DOT":-1e-8,"MEAN_MOTION_DDOT":0},{"OBJECT_NAME":"ONEWEB-0463","OBJECT_ID":"2022-012AE","EPOCH":"2026-07-04T23:30:37.066752","CLASSIFICATION_TYPE":"U","MEAN_MOTION":13.17650534,"ECCENTRICITY":0.0002019,"INCLINATION":87.9136,"RA_OF_ASC_NODE":2.3393,"ARG_OF_PERICENTER":89.8602,"MEAN_ANOMALY":270.2761,"EPHEMERIS_TYPE":0,"NORAD_CAT_ID":51650,"ELEMENT_SET_NO":999,"REV_AT_EPOCH":21601,"BSTAR":0.000036629,"MEAN_MOTION_DOT":2.7e-7,"MEAN_MOTION_DDOT":0},{"OBJECT_NAME":"ONEWEB-0464","OBJECT_ID":"2022-012AF","EPOCH":"2026-07-05T12:17:35.317248","CLASSIFICATION_TYPE":"U","MEAN_MOTION":13.10382424,"ECCENTRICITY":0.0001368,"INCLINATION":87.8828,"RA_OF_ASC_NODE":32.6291,"ARG_OF_PERICENTER":90.2329,"MEAN_ANOMALY":269.8955,"EPHEMERIS_TYPE":0,"NORAD_CAT_ID":51651,"ELEMENT_SET_NO":999,"REV_AT_EPOCH":21172,"BSTAR":-0.0088802,"MEAN_MOTION_DOT":-0.00003087,"MEAN_MOTION_DDOT":0},{"OBJECT_NAME":"ONEWEB-0468","OBJECT_ID":"2022-012AG","EPOCH":"2026-07-05T08:44:57.482016","CLASSIFICATION_TYPE":"U","MEAN_MOTION":13.10369777,"ECCENTRICITY":0.0001605,"INCLINATION":87.8816,"RA_OF_ASC_NODE":32.6524,"ARG_OF_PERICENTER":90.1765,"MEAN_ANOMALY":269.9547,"EPHEMERIS_TYPE":0,"NORAD_CAT_ID":51652,"ELEMENT_SET_NO":999,"REV_AT_EPOCH":21168,"BSTAR":-0.0016704,"MEAN_MOTION_DOT":-0.0000057,"MEAN_MOTION_DDOT":0},{"OBJECT_NAME":"ONEWEB-0473","OBJECT_ID":"2022-012AH","EPOCH":"2026-07-05T02:55:36.352128","CLASSIFICATION_TYPE":"U","MEAN_MOTION":13.10364508,"ECCENTRICITY":0.0001803,"INCLINATION":87.8814,"RA_OF_ASC_NODE":32.7028,"ARG_OF_PERICENTER":88.9325,"MEAN_ANOMALY":271.2009,"EPHEMERIS_TYPE":0,"NORAD_CAT_ID":51653,"ELEMENT_SET_NO":999,"REV_AT_EPOCH":21165,"BSTAR":-0.000018644,"MEAN_MOTION_DOT":6e-8,"MEAN_MOTION_DDOT":0},{"OBJECT_NAME":"ONEWEB-0474","OBJECT_ID":"2022-012AJ","EPOCH":"2026-07-05T11:53:10.330080","CLASSIFICATION_TYPE":"U","MEAN_MOTION":13.10371413,"ECCENTRICITY":0.000153,"INCLINATION":87.8826,"RA_OF_ASC_NODE":32.6144,"ARG_OF_PERICENTER":87.5817,"MEAN_ANOMALY":272.5485,"EPHEMERIS_TYPE":0,"NORAD_CAT_ID":51654,"ELEMENT_SET_NO":999,"REV_AT_EPOCH":21169,"BSTAR":0.0013182,"MEAN_MOTION_DOT":0.00000473,"MEAN_MOTION_DDOT":0},{"OBJECT_NAME":"ONEWEB-0475","OBJECT_ID":"2022-012AK","EPOCH":"2026-07-05T10:43:42.142656","CLASSIFICATION_TYPE":"U","MEAN_MOTION":13.17647503,"ECCENTRICITY":0.0001205,"INCLINATION":87.9136,"RA_OF_ASC_NODE":2.2396,"ARG_OF_PERICENTER":98.4564,"MEAN_ANOMALY":261.6704,"EPHEMERIS_TYPE":0,"NORAD_CAT_ID":51655,"ELEMENT_SET_NO":999,"REV_AT_EPOCH":21609,"BSTAR":0.000021331,"MEAN_MOTION_DOT":2.1e-7,"MEAN_MOTION_DDOT":0},{"OBJECT_NAME":"ONEWEB-0490","OBJECT_ID":"2022-138A","EPOCH":"2026-07-05T07:56:05.347680","CLASSIFICATION_TYPE":"U","MEAN_MOTION":13.19726283,"ECCENTRICITY":0.0001922,"INCLINATION":87.919,"RA_OF_ASC_NODE":301.3543,"ARG_OF_PERICENTER":106.5487,"MEAN_ANOMALY":253.5857,"EPHEMERIS_TYPE":0,"NORAD_CAT_ID":54113,"ELEMENT_SET_NO":999,"REV_AT_EPOCH":17922,"BSTAR":0.00024426,"MEAN_MOTION_DOT":0.00000111,"MEAN_MOTION_DDOT":0},{"OBJECT_NAME":"ONEWEB-0492","OBJECT_ID":"2022-138B","EPOCH":"2026-07-05T06:43:17.520960","CLASSIFICATION_TYPE":"U","MEAN_MOTION":13.19726574,"ECCENTRICITY":0.0002118,"INCLINATION":87.9182,"RA_OF_ASC_NODE":301.3647,"ARG_OF_PERICENTER":106.3652,"MEAN_ANOMALY":253.7714,"EPHEMERIS_TYPE":0,"NORAD_CAT_ID":54114,"ELEMENT_SET_NO":999,"REV_AT_EPOCH":17922,"BSTAR":0.00031917,"MEAN_MOTION_DOT":0.00000141,"MEAN_MOTION_DDOT":0},{"OBJECT_NAME":"ONEWEB-0495","OBJECT_ID":"2022-138C","EPOCH":"2026-07-05T08:00:38.351808","CLASSIFICATION_TYPE":"U","MEAN_MOTION":13.19726307,"ECCENTRICITY":0.0001858,"INCLINATION":87.9184,"RA_OF_ASC_NODE":301.3564,"ARG_OF_PERICENTER":120.5883,"MEAN_ANOMALY":239.5433,"EPHEMERIS_TYPE":0,"NORAD_CAT_ID":54115,"ELEMENT_SET_NO":999,"REV_AT_EPOCH":17921,"BSTAR":0.00020086,"MEAN_MOTION_DOT":9.3e-7,"MEAN_MOTION_DDOT":0},{"OBJECT_NAME":"ONEWEB-0497","OBJECT_ID":"2022-138D","EPOCH":"2026-07-05T06:29:39.662016","CLASSIFICATION_TYPE":"U","MEAN_MOTION":13.19726025,"ECCENTRICITY":0.0001951,"INCLINATION":87.919,"RA_OF_ASC_NODE":301.3626,"ARG_OF_PERICENTER":103.425,"MEAN_ANOMALY":256.71,"EPHEMERIS_TYPE":0,"NORAD_CAT_ID":54116,"ELEMENT_SET_NO":999,"REV_AT_EPOCH":17919,"BSTAR":0.00029955,"MEAN_MOTION_DOT":0.00000133,"MEAN_MOTION_DDOT":0},{"OBJECT_NAME":"ONEWEB-0499","OBJECT_ID":"2022-138E","EPOCH":"2026-07-05T07:54:55.482048","CLASSIFICATION_TYPE":"U","MEAN_MOTION":13.19724019,"ECCENTRICITY":0.0001778,"INCLINATION":87.9183,"RA_OF_ASC_NODE":301.3583,"ARG_OF_PERICENTER":106.3857,"MEAN_ANOMALY":253.7471,"EPHEMERIS_TYPE":0,"NORAD_CAT_ID":54117,"ELEMENT_SET_NO":999,"REV_AT_EPOCH":17921,"BSTAR":0.0002515,"MEAN_MOTION_DOT":0.00000114,"MEAN_MOTION_DDOT":0},{"OBJECT_NAME":"ONEWEB-0500","OBJECT_ID":"2022-138F","EPOCH":"2026-07-05T07:58:22.150848","CLASSIFICATION_TYPE":"U","MEAN_MOTION":13.19726,"ECCENTRICITY":0.0002059,"INCLINATION":87.9191,"RA_OF_ASC_NODE":301.3533,"ARG_OF_PERICENTER":100.3912,"MEAN_ANOMALY":259.7453,"EPHEMERIS_TYPE":0,"NORAD_CAT_ID":54118,"ELEMENT_SET_NO":999,"REV_AT_EPOCH":17922,"BSTAR":0.00025829,"MEAN_MOTION_DOT":0.00000116,"MEAN_MOTION_DDOT":0},{"OBJECT_NAME":"ONEWEB-0501","OBJECT_ID":"2022-138G","EPOCH":"2026-07-05T06:52:24.942720","CLASSIFICATION_TYPE":"U","MEAN_MOTION":13.19725103,"ECCENTRICITY":0.0001817,"INCLINATION":87.9191,"RA_OF_ASC_NODE":301.3624,"ARG_OF_PERICENTER":113.4363,"MEAN_ANOMALY":246.696,"EPHEMERIS_TYPE":0,"NORAD_CAT_ID":54119,"ELEMENT_SET_NO":999,"REV_AT_EPOCH":17919,"BSTAR":0.00023427,"MEAN_MOTION_DOT":0.00000107,"MEAN_MOTION_DDOT":0},{"OBJECT_NAME":"ONEWEB-0502","OBJECT_ID":"2022-138H","EPOCH":"2026-07-05T08:21:06.649632","CLASSIFICATION_TYPE":"U","MEAN_MOTION":13.19725308,"ECCENTRICITY":0.0001729,"INCLINATION":87.9194,"RA_OF_ASC_NODE":301.3392,"ARG_OF_PERICENTER":105.4035,"MEAN_ANOMALY":254.7288,"EPHEMERIS_TYPE":0,"NORAD_CAT_ID":54120,"ELEMENT_SET_NO":999,"REV_AT_EPOCH":17922,"BSTAR":0.00020923,"MEAN_MOTION_DOT":9.7e-7,"MEAN_MOTION_DDOT":0},{"OBJECT_NAME":"ONEWEB-0503","OBJECT_ID":"2022-138J","EPOCH":"2026-07-05T08:05:11.260032","CLASSIFICATION_TYPE":"U","MEAN_MOTION":13.19726662,"ECCENTRICITY":0.000179,"INCLINATION":87.9196,"RA_OF_ASC_NODE":301.3476,"ARG_OF_PERICENTER":94.481,"MEAN_ANOMALY":265.6527,"EPHEMERIS_TYPE":0,"NORAD_CAT_ID":54121,"ELEMENT_SET_NO":999,"REV_AT_EPOCH":17921,"BSTAR":0.00024417,"MEAN_MOTION_DOT":0.00000111,"MEAN_MOTION_DDOT":0},{"OBJECT_NAME":"ONEWEB-0504","OBJECT_ID":"2022-138K","EPOCH":"2026-07-05T07:46:59.583936","CLASSIFICATION_TYPE":"U","MEAN_MOTION":13.19726465,"ECCENTRICITY":0.0001739,"INCLINATION":87.9193,"RA_OF_ASC_NODE":301.3545,"ARG_OF_PERICENTER":104.9082,"MEAN_ANOMALY":255.2243,"EPHEMERIS_TYPE":0,"NORAD_CAT_ID":54122,"ELEMENT_SET_NO":999,"REV_AT_EPOCH":17922,"BSTAR":0.00018238,"MEAN_MOTION_DOT":8.6e-7,"MEAN_MOTION_DDOT":0},{"OBJECT_NAME":"ONEWEB-0505","OBJECT_ID":"2022-138L","EPOCH":"2026-07-05T07:42:25.396992","CLASSIFICATION_TYPE":"U","MEAN_MOTION":13.19727854,"ECCENTRICITY":0.000172,"INCLINATION":87.9191,"RA_OF_ASC_NODE":301.3559,"ARG_OF_PERICENTER":113.5119,"MEAN_ANOMALY":246.6194,"EPHEMERIS_TYPE":0,"NORAD_CAT_ID":54123,"ELEMENT_SET_NO":999,"REV_AT_EPOCH":17920,"BSTAR":0.00022457,"MEAN_MOTION_DOT":0.00000103,"MEAN_MOTION_DDOT":0},{"OBJECT_NAME":"ONEWEB-0506","OBJECT_ID":"2022-138M","EPOCH":"2026-07-05T07:06:03.484224","CLASSIFICATION_TYPE":"U","MEAN_MOTION":13.19724501,"ECCENTRICITY":0.0001812,"INCLINATION":87.9191,"RA_OF_ASC_NODE":301.3584,"ARG_OF_PERICENTER":110.2536,"MEAN_ANOMALY":249.8791,"EPHEMERIS_TYPE":0,"NORAD_CAT_ID":54124,"ELEMENT_SET_NO":999,"REV_AT_EPOCH":17919,"BSTAR":0.00016276,"MEAN_MOTION_DOT":7.8e-7,"MEAN_MOTION_DDOT":0},{"OBJECT_NAME":"ONEWEB-0507","OBJECT_ID":"2022-138N","EPOCH":"2026-07-05T07:35:37.044672","CLASSIFICATION_TYPE":"U","MEAN_MOTION":13.19726285,"ECCENTRICITY":0.0001911,"INCLINATION":87.9184,"RA_OF_ASC_NODE":301.3649,"ARG_OF_PERICENTER":107.067,"MEAN_ANOMALY":253.0672,"EPHEMERIS_TYPE":0,"NORAD_CAT_ID":54125,"ELEMENT_SET_NO":999,"REV_AT_EPOCH":17924,"BSTAR":0.000075852,"MEAN_MOTION_DOT":4.3e-7,"MEAN_MOTION_DDOT":0},{"OBJECT_NAME":"ONEWEB-0508","OBJECT_ID":"2022-138P","EPOCH":"2026-07-05T07:31:04.164096","CLASSIFICATION_TYPE":"U","MEAN_MOTION":13.1972614,"ECCENTRICITY":0.0002014,"INCLINATION":87.9183,"RA_OF_ASC_NODE":301.3648,"ARG_OF_PERICENTER":114.335,"MEAN_ANOMALY":245.7993,"EPHEMERIS_TYPE":0,"NORAD_CAT_ID":54126,"ELEMENT_SET_NO":999,"REV_AT_EPOCH":17922,"BSTAR":0.00017346,"MEAN_MOTION_DOT":8.2e-7,"MEAN_MOTION_DDOT":0}]}
